STARLINK-31123          
1 58775U 24011L   26068.23965336  .00001211  00000+0  53020-4 0  9997
2 58775  53.1618  15.6065 0001045  65.6642 294.4468 15.30193616120207
HAWK-11B                
1 62379U 24247C   26068.44730104  .00009093  00000+0  32842-3 0  9993
2 62379  45.0161 115.7610 0004690 333.0326  27.0314 15.28847070 67738
